ONEWEB-0667             
1 55827U 23029AH  26193.70918076  .00000137  00000+0  30481-3 0  9991
2 55827  87.9195 269.3459 0001943 102.2194 257.9157 13.20773504164517
ONEWEB-0669             
1 55828U 23029AJ  26193.70412395  .00000010  00000+0 -79971-5 0  9995
2 55828  87.9182 269.3570 0001628  85.4973 274.6346 13.20772716164515
ONEWEB-0670             
1 55829U 23029AK  26193.63563765  .00000228  00000+0  58011-3 0  9996
2 55829  87.8980 284.6650 0001639 102.4500 257.6813 13.14500768162773
ONEWEB-0671             
1 55830U 23029AL  26193.68957823  .00000051  00000+0  95402-4 0  9995
2 55830  87.9186 299.8967 0001917 106.5690 253.5654 13.19726452162264
ONEWEB-0672             
1 55831U 23029AM  26193.69908306  .00000180  00000+0  41099-3 0  9994
2 55831  87.9206 269.3495 0002082  93.8233 266.3139 13.20769857164519
ONEWEB-0673             
1 55832U 23029AN  26193.74248919 -.00000009  00000+0 -55839-4 0  9998
2 55832  87.9192 299.8794 0001852 104.0215 256.1124 13.19725147162277
ONEWEB-0674             
1 55833U 23029AP  26193.75614420 -.00000114  00000+0 -34095-3 0  9991
2 55833  87.8954 284.6222 0001620 105.2784 254.8525 13.14501789162772
ONEWEB-0675             
1 55834U 23029AQ  26193.68168318  .00000064  00000+0  12739-3 0  9997
2 55834  87.9186 299.9003 0002246  97.8612 262.2776 13.19724393162288
ONEWEB-0720             
1 55835U 23029AR  26193.74960380 -.00000037  00000+0 -12541-3 0  9997
2 55835  87.9186 299.8861 0002076 108.1898 251.9461 13.19725912162210
ONEWEB-0537             
1 56046U 23043A   26193.57758690  .00000043  00000+0  80115-4 0  9996
2 56046  87.9082 223.7278 0002233  88.3924 271.7463 13.16593910162302
ONEWEB-0538             
1 56047U 23043B   26193.64724802 -.00000031  00000+0 -11591-3 0  9993
2 56047  87.9087 223.7161 0002343  96.1679 263.9719 13.16594009162324
ONEWEB-0546             
1 56048U 23043C   26193.63458192 -.00000029  00000+0 -11049-3 0  9994
2 56048  87.9087 223.7186 0002317  78.9274 281.2117 13.16594243162316
ONEWEB-0547             
1 56049U 23043D   26193.68211198 -.00000065  00000+0 -18908-3 0  9994
2 56049  87.9243 238.9006 0002411 113.3786 246.7602 13.21826419161590
ONEWEB-0548             
1 56050U 23043E   26193.50712052 -.00000005  00000+0 -45916-4 0  9996
2 56050  87.9074 223.7409 0001596  92.2249 267.9065 13.16594475162299
ONEWEB-0549             
1 56051U 23043F   26193.52483615  .00000056  00000+0  10441-3 0  9997
2 56051  87.9232 238.9380 0002439  98.3208 261.8203 13.21827225161576
ONEWEB-0550             
1 56052U 23043G   26193.66278162  .00000018  00000+0  12496-4 0  9993
2 56052  87.9236 238.9084 0001851  97.0737 263.0607 13.21827132161593
ONEWEB-0551             
1 56053U 23043H   26193.71049986  .00000058  00000+0  12129-3 0  9996
2 56053  87.8986 254.1408 0002344 103.8026 256.3366 13.15547386159755
ONEWEB-0552             
1 56054U 23043J   26193.65771994  .00000038  00000+0  59835-4 0  9995
2 56054  87.9231 238.9142 0002049 102.2159 257.9205 13.21826234161590
ONEWEB-0553             
1 56055U 23043K   26193.64091446 -.00000003  00000+0 -40902-4 0  9991
2 56055  87.9082 223.7182 0002100  84.3306 275.8064 13.16593657162321
ONEWEB-0554             
1 56056U 23043L   26193.62825110  .00000076  00000+0  16556-3 0  9998
2 56056  87.9078 223.7294 0001518  91.9635 268.1670 13.16594758162301
ONEWEB-0555             
1 56057U 23043M   26193.59024568  .00000032  00000+0  50259-4 0  9994
2 56057  87.9078 223.7260 0002258  79.3024 280.8361 13.16593636162301
ONEWEB-0557             
1 56058U 23043N   26193.52849903  .00000115  00000+0  26844-3 0  9990
2 56058  87.9079 223.7480 0001434  56.6829 303.4439 13.16593578162294
ONEWEB-0558             
1 56059U 23043P   26193.65099772  .00000035  00000+0  52886-4 0  9993
2 56059  87.9240 238.9103 0002412  98.0812 262.0596 13.21825625161609
ONEWEB-0559             
1 56060U 23043Q   26193.63921962  .00000027  00000+0  32993-4 0  9996
2 56060  87.9234 238.9094 0002247 100.0393 260.0995 13.21823977161617
ONEWEB-0566             
1 56061U 23043R   26193.10261641  .00000053  00000+0  96007-4 0  9995
2 56061  87.9238 239.0138 0002329 102.9616 257.1778 13.21823834161521
ONEWEB-0568             
1 56062U 23043S   26193.54591890  .00000084  00000+0  18485-3 0  9993
2 56062  87.9079 223.7339 0002133  86.5318 273.6057 13.16595975162314
ONEWEB-0574             
1 56063U 23043T   26193.62578154  .00000036  00000+0  55576-4 0  9991
2 56063  87.9238 238.9150 0002014  89.3736 270.7628 13.21825682161637
ONEWEB-0575             
1 56064U 23043U   26193.53958031  .00000118  00000+0  27528-3 0  9994
2 56064  87.9079 223.7316 0001788  83.1796 276.9538 13.16595338162301
ONEWEB-0576             
1 56065U 23043V   26193.52057501  .00000040  00000+0  70312-4 0  9990
2 56065  87.9078 223.7447 0001920  91.3121 268.8230 13.16595013162294
ONEWEB-0577             
1 56066U 23043W   26193.52691670  .00000119  00000+0  27657-3 0  9992
2 56066  87.9081 223.7403 0001357  79.7803 280.3481 13.16595725162323
